[{"OBJECT_NAME":"TK-2","OBJECT_ID":"2022-031A","EPOCH":"2026-03-09T22:51:17.143200","MEAN_MOTION":15.02943491,"ECCENTRICITY":0.00164117,"INCLINATION":97.8366,"RA_OF_ASC_NODE":263.9365,"ARG_OF_PERICENTER":100.3205,"MEAN_ANOMALY":259.9871,"EPHEMERIS_TYPE":0,"CLASSIFICATION_TYPE":"U","NORAD_CAT_ID":52150,"ELEMENT_SET_NO":999,"REV_AT_EPOCH":21555,"BSTAR":0.00040164474,"MEAN_MOTION_DOT":5.349e-5,"MEAN_MOTION_DDOT":0},{"OBJECT_NAME":"STARLINK-5389","OBJECT_ID":"2022-177R","EPOCH":"2026-03-09T12:54:27.434592","MEAN_MOTION":15.02541531,"ECCENTRICITY":0.00010408,"INCLINATION":43.0003,"RA_OF_ASC_NODE":134.0543,"ARG_OF_PERICENTER":236.5549,"MEAN_ANOMALY":123.5194,"EPHEMERIS_TYPE":0,"CLASSIFICATION_TYPE":"U","NORAD_CAT_ID":54835,"ELEMENT_SET_NO":999,"REV_AT_EPOCH":17693,"BSTAR":2.7657618e-5,"MEAN_MOTION_DOT":1.7e-6,"MEAN_MOTION_DDOT":0}]
